[ {"spaceTrack": {"CCSDS_OMM_VERS": "2.0", "COMMENT": "GENERATED VIA SPACE-TRACK.ORG API", "CREATION_DATE": "2020-08-23 14:56:10", "ORIGINATOR": "18 SPCS", "OBJECT_NAME": "STARLINK-1443", "OBJECT_ID": "2020-035D", "CENTER_NAME": "EARTH", "REF_FRAME": "TEME", "TIME_SYSTEM": "UTC", "MEAN_ELEMENT_THEORY": "SGP4", "EPOCH": "2020-08-23 14:00:01.999872", "MEAN_MOTION": 15.05565918, "ECCENTRICITY": 0.0001921, "INCLINATION": 53.001, "RA_OF_ASC_NODE": 153.1799, "ARG_OF_PERICENTER": 75.6098, "MEAN_ANOMALY": 37.2812, "EPHEMERIS_TYPE": 0, "CLASSIFICATION_TYPE": "U", "NORAD_CAT_ID": 45660, "ELEMENT_SET_NO": 999, "REV_AT_EPOCH": 1326, "BSTAR": 0.0017084, "MEAN_MOTION_DOT": 0.0002469, "MEAN_MOTION_DDOT": 0, "SEMIMAJOR_AXIS": 6927.906, "PERIOD": 95.645, "APOAPSIS": 551.101, "PERIAPSIS": 548.44, "OBJECT_TYPE": "PAYLOAD", "RCS_SIZE": "LARGE", "COUNTRY_CODE": "US", "LAUNCH_DATE": "2020-06-04", "SITE": "AFETR", "DECAY_DATE": null, "DECAYED": 0, "FILE": 2807111, "GP_ID": 159941616, "TLE_LINE0": "0 STARLINK-1443", "TLE_LINE1": "1 45660U 20035D   20236.58335648  .00024690  00000-0  17084-2 0  9999", "TLE_LINE2": "2 45660  53.0010 153.1799 0001921  75.6098  37.2812 15.05565918 13265"}, "version": "v1.0", "launch": "5eb87d45ffd86e000604b387", "longitude": -42.20130148325872, "latitude": 44.327607461890466, "height_km": 553.261653309577, "velocity_kms": 7.591161346638133, "id": "5eed7716096e5900069857c6"}, {"spaceTrack": {"CCSDS_OMM_VERS": "2.0", "COMMENT": "GENERATED VIA SPACE-TRACK.ORG API", "CREATION_DATE": "2020-08-23 14:56:10", "ORIGINATOR": "18 SPCS", "OBJECT_NAME": "STARLINK-1444", "OBJECT_ID": "2020-035E", "CENTER_NAME": "EARTH", "REF_FRAME": "TEME", "TIME_SYSTEM": "UTC", "MEAN_ELEMENT_THEORY": "SGP4", "EPOCH": "2020-08-23 14:00:01.999872", "MEAN_MOTION": 15.05552752, "ECCENTRICITY": 0.000175, "INCLINATION": 53.0021, "RA_OF_ASC_NODE": 153.1778, "ARG_OF_PERICENTER": 76.5744, "MEAN_ANOMALY": 288.3683, "EPHEMERIS_TYPE": 0, "CLASSIFICATION_TYPE": "U", "NORAD_CAT_ID": 45661, "ELEMENT_SET_NO": 999, "REV_AT_EPOCH": 1324, "BSTAR": 0.001944, "MEAN_MOTION_DOT": 0.00028137, "MEAN_MOTION_DDOT": 0, "SEMIMAJOR_AXIS": 6927.946, "PERIOD": 95.645, "APOAPSIS": 551.023, "PERIAPSIS": 548.599, "OBJECT_TYPE": "PAYLOAD", "RCS_SIZE": "LARGE", "COUNTRY_CODE": "US", "LAUNCH_DATE": "2020-06-04", "SITE": "AFETR", "DECAY_DATE": null, "DECAYED": 0, "FILE": 2807111, "GP_ID": 159941620, "TLE_LINE0": "0 STARLINK-1444", "TLE_LINE1": "1 45661U 20035E   20236.58335648  .00028137  00000-0  19440-2 0  9998", "TLE_LINE2": "2 45661  53.0021 153.1778 0001750  76.5744 288.3683 15.05552752 13248"}, "version": "v1.0", "launch": "5eb87d45ffd86e000604b387", "longitude": -168.42597817883487, "latitude": 8.872911889020823, "height_km": 549.4168821250842, "velocity_kms": 7.589373711125199, "id": "5eed7716096e5900069857c7"}, {"spaceTrack": {"CCSDS_OMM_VERS": "2.0", "COMMENT": "GENERATED VIA SPACE-TRACK.ORG API", "CREATION_DATE": "2020-08-23 22:46:10", "ORIGINATOR": "18 SPCS", "OBJECT_NAME": "STARLINK-1360", "OBJECT_ID": "2020-025BK", "CENTER_NAME": "EARTH", "REF_FRAME": "TEME", "TIME_SYSTEM": "UTC", "MEAN_ELEMENT_THEORY": "SGP4", "EPOCH": "2020-08-23 22:00:00.999936", "MEAN_MOTION": 15.05621641, "ECCENTRICITY": 0.0001838, "INCLINATION": 52.9975, "RA_OF_ASC_NODE": 161.6912, "ARG_OF_PERICENTER": 84.8151, "MEAN_ANOMALY": 25.6867, "EPHEMERIS_TYPE": 0, "CLASSIFICATION_TYPE": "U", "NORAD_CAT_ID": 45588, "ELEMENT_SET_NO": 999, "REV_AT_EPOCH": 1989, "BSTAR": -0.0020893, "MEAN_MOTION_DOT": -0.00030624, "MEAN_MOTION_DDOT": 0, "SEMIMAJOR_AXIS": 6927.735, "PERIOD": 95.641, "APOAPSIS": 550.873, "PERIAPSIS": 548.326, "OBJECT_TYPE": "PAYLOAD", "RCS_SIZE": "LARGE", "COUNTRY_CODE": "US", "LAUNCH_DATE": "2020-04-22", "SITE": "AFETR", "DECAY_DATE": null, "DECAYED": 0, "FILE": 2807293, "GP_ID": 159987323, "TLE_LINE0": "0 STARLINK-1360", "TLE_LINE1": "1 45588U 20025BK  20236.91667824 -.00030624  00000-0 -20893-2 0  9996", "TLE_LINE2": "2 45588  52.9975 161.6912 0001838  84.8151  25.6867 15.05621641 19894"}, "version": "v1.0", "launch": "5eb87d44ffd86e000604b386", "longitude": -45.19645008225647, "latitude": 49.144491272247, "height_km": 554.078985823342, "velocity_kms": 7.591300299447963, "id": "5eed7716096e5900069857c8"}, {"spaceTrack": {"CCSDS_OMM_VERS": "2.0", "COMMENT": "GENERATED VIA SPACE-TRACK.ORG API", "CREATION_DATE": "2020-07-14 14:56:08", "ORIGINATOR": "18 SPCS", "OBJECT_NAME": "STARLINK-1440", "OBJECT_ID": "2020-035A", "CENTER_NAME": "EARTH", "REF_FRAME": "TEME", "TIME_SYSTEM": "UTC", "MEAN_ELEMENT_THEORY": "SGP4", "EPOCH": "2020-07-14 14:23:37.542912", "MEAN_MOTION": 16.46735707, "ECCENTRICITY": 0.0028054, "INCLINATION": 53.0001, "RA_OF_ASC_NODE": 319.7129, "ARG_OF_PERICENTER": 181.2741, "MEAN_ANOMALY": 293.9291, "EPHEMERIS_TYPE": 0, "CLASSIFICATION_TYPE": "U", "NORAD_CAT_ID": 45657, "ELEMENT_SET_NO": 999, "REV_AT_EPOCH": 740, "BSTAR": 0.00047903, "MEAN_MOTION_DOT": 0.38210219, "MEAN_MOTION_DDOT": 1.2083e-05, "SEMIMAJOR_AXIS": 6526.082, "PERIOD": 87.445, "APOAPSIS": 166.255, "PERIAPSIS": 129.639, "OBJECT_TYPE": "PAYLOAD", "RCS_SIZE": "LARGE", "COUNTRY_CODE": "US", "LAUNCH_DATE": "2020-06-04", "SITE": "AFETR", "DECAY_DATE": "2020-07-14", "DECAYED": 1, "FILE": 2785047, "GP_ID": 157514755, "TLE_LINE0": "0 STARLINK-1440", "TLE_LINE1": "1 45657U 20035A   20196.59974008  .38210219  12083-4  47903-3 0  9997", "TLE_LINE2": "2 45657  53.0001 319.7129 0028054 181.2741 293.9291 16.46735707  7405"}, "version": "v1.0", "launch": "5eb87d45ffd86e000604b387", "longitude": null, "latitude": null, "height_km": null, "velocity_kms": null, "id": "5eed7716096e5900069857c9"}, {"spaceTrack": {"CCSDS_OMM_VERS": "2.0", "COMMENT": "GENERATED VIA SPACE-TRACK.ORG API", "CREATION_DATE": "2020-08-23 14:56:10", "ORIGINATOR": "18 SPCS", "OBJECT_NAME": "STARLINK-1442", "OBJECT_ID": "2020-035C", "CENTER_NAME": "EARTH", "REF_FRAME": "TEME", "TIME_SYSTEM": "UTC", "MEAN_ELEMENT_THEORY": "SGP4", "EPOCH": "2020-08-23 14:00:01.999872", "MEAN_MOTION": 15.05572597, "ECCENTRICITY": 0.0001998, "INCLINATION": 53.0003, "RA_OF_ASC_NODE": 153.1783, "ARG_OF_PERICENTER": 72.5446, "MEAN_ANOMALY": 58.3417, "EPHEMERIS_TYPE": 0, "CLASSIFICATION_TYPE": "U", "NORAD_CAT_ID": 45659, "ELEMENT_SET_NO": 999, "REV_AT_EPOCH": 1326, "BSTAR": 0.0017106, "MEAN_MOTION_DOT": 0.00024727, "MEAN_MOTION_DDOT": 0, "SEMIMAJOR_AXIS": 6927.885, "PERIOD": 95.644, "APOAPSIS": 551.134, "PERIAPSIS": 548.366, "OBJECT_TYPE": "PAYLOAD", "RCS_SIZE": "LARGE", "COUNTRY_CODE": "US", "LAUNCH_DATE": "2020-06-04", "SITE": "AFETR", "DECAY_DATE": null, "DECAYED": 0, "FILE": 2807110, "GP_ID": 159941141, "TLE_LINE0": "0 STARLINK-1442", "TLE_LINE1": "1 45659U 20035C   20236.58335648  .00024727  00000-0  17106-2 0  9993", "TLE_LINE2": "2 45659  53.0003 153.1783 0001998  72.5446  58.3417 15.05572597 13261"}, "version": "v1.0", "launch": "5eb87d45ffd86e000604b387", "longitude": -24.203572215138824, "latitude": 32.94549680780173, "height_km": 551.2620230181992, "velocity_kms": 7.590844906815438, "id": "5eed7716096e5900069857ca"}, {"spaceTrack": {"CCSDS_OMM_VERS": "2.0", "COMMENT": "GENERATED VIA SPACE-TRACK.ORG API", "CREATION_DATE": "2020-08-23 17:26:13", "ORIGINATOR": "18 SPCS", "OBJECT_NAME": "STARLINK-1364", "OBJECT_ID": "2020-025BL", "CENTER_NAME": "EARTH", "REF_FRAME": "TEME", "TIME_SYSTEM": "UTC", "MEAN_ELEMENT_THEORY": "SGP4", "EPOCH": "2020-08-23 14:00:01.999872", "MEAN_MOTION": 15.05575285, "ECCENTRICITY": 0.0001143, "INCLINATION": 52.9887, "RA_OF_ASC_NODE": 163.2567, "ARG_OF_PERICENTER": 74.6364, "MEAN_ANOMALY": 46.1243, "EPHEMERIS_TYPE": 0, "CLASSIFICATION_TYPE": "U", "NORAD_CAT_ID": 45589, "ELEMENT_SET_NO": 999, "REV_AT_EPOCH": 175, "BSTAR": 0.00085483, "MEAN_MOTION_DOT": 0.00012196, "MEAN_MOTION_DDOT": 0, "SEMIMAJOR_AXIS": 6927.877, "PERIOD": 95.644, "APOAPSIS": 550.534, "PERIAPSIS": 548.95, "OBJECT_TYPE": "PAYLOAD", "RCS_SIZE": "LARGE", "COUNTRY_CODE": "US", "LAUNCH_DATE": "2020-04-22", "SITE": "AFETR", "DECAY_DATE": null, "DECAYED": 0, "FILE": 2807181, "GP_ID": 159963350, "TLE_LINE0": "0 STARLINK-1364", "TLE_LINE1": "1 45589U 20025BL  20236.58335648 +.00012196 +00000-0 +85483-3 0  9995", "TLE_LINE2": "2 45589 052.9887 163.2567 0001143 074.6364 046.1243 15.05575285001757"}, "version": "v1.0", "launch": "5eb87d44ffd86e000604b386", "longitude": -23.549329362804325, "latitude": 39.69072864552097, "height_km": 552.7351479710014, "velocity_kms": 7.590696133846098, "id": "5eed7716096e5900069857cb"}, {"spaceTrack": {"CCSDS_OMM_VERS": "2.0", "COMMENT": "GENERATED VIA SPACE-TRACK.ORG API", "CREATION_DATE": "2020-08-23 14:56:10", "ORIGINATOR": "18 SPCS", "OBJECT_NAME": "STARLINK-1457", "OBJECT_ID": "2020-035T", "CENTER_NAME": "EARTH", "REF_FRAME": "TEME", "TIME_SYSTEM": "UTC", "MEAN_ELEMENT_THEORY": "SGP4", "EPOCH": "2020-08-23 14:00:01.999872", "MEAN_MOTION": 15.05578768, "ECCENTRICITY": 0.0001963, "INCLINATION": 52.9977, "RA_OF_ASC_NODE": 153.1894, "ARG_OF_PERICENTER": 77.8633, "MEAN_ANOMALY": 107.0854, "EPHEMERIS_TYPE": 0, "CLASSIFICATION_TYPE": "U", "NORAD_CAT_ID": 45674, "ELEMENT_SET_NO": 999, "REV_AT_EPOCH": 1326, "BSTAR": 0.0016938, "MEAN_MOTION_DOT": 0.00024485, "MEAN_MOTION_DDOT": 0, "SEMIMAJOR_AXIS": 6927.866, "PERIOD": 95.644, "APOAPSIS": 551.091, "PERIAPSIS": 548.371, "OBJECT_TYPE": "PAYLOAD", "RCS_SIZE": "LARGE", "COUNTRY_CODE": "US", "LAUNCH_DATE": "2020-06-04", "SITE": "AFETR", "DECAY_DATE": null, "DECAYED": 0, "FILE": 2807115, "GP_ID": 159941634, "TLE_LINE0": "0 STARLINK-1457", "TLE_LINE1": "1 45674U 20035T   20236.58335648  .00024485  00000-0  16938-2 0  9993", "TLE_LINE2": "2 45674  52.9977 153.1894 0001963  77.8633 107.0854 15.05578768 13260"}, "version": "v1.0", "launch": "5eb87d45ffd86e000604b387", "longitude": 11.73772410883109, "latitude": -9.065635855442206, "height_km": 552.6700736863058, "velocity_kms": 7.5857847511362895, "id": "5eed7716096e5900069857cc"}]